NORAD_CAT_ID,OBJECT_NAME,OBJECT_TYPE,EPOCH,MEAN_MOTION,ECCENTRICITY,INCLINATION,RA_OF_ASC_NODE,ARG_OF_PERICENTER,MEAN_ANOMALY,BSTAR,MEAN_MOTION_DOT,MEAN_MOTION_DDOT,TLE_LINE0,TLE_LINE1,TLE_LINE2,SEMIMAJOR_AXIS,PERIOD,APOGEE,PERIGEE,DECAYED
55269.0,STARLINK-5277,PAYLOAD,2024-07-05 15:11:06,14.98328637,0.0002956,69.9995,147.7513,269.804,90.278,6.5572e-06,-1.5e-07,0.0,0 STARLINK-5277,1 55269U 23010A   24187.63271363 -.00000015  00000-0  65572-5 0  9993,2 55269  69.9995 147.7513 0002956 269.8040  90.2780 14.98328637 80796,6950.197,96.107,574.117,570.008,0.0
55269.0,STARLINK-5277,PAYLOAD,2024-07-05 21:35:38,14.98327523,0.0002946,69.9994,147.0782,269.743,90.3391,-1.7377e-06,-1.14e-06,0.0,0 STARLINK-5277,1 55269U 23010A   24187.89975490 -.00000114  00000-0 -17377-5 0  9994,2 55269  69.9994 147.0782 0002946 269.7430  90.3391 14.98327523 81420,6950.201,96.107,574.113,570.018,0.0
55269.0,STARLINK-5277,PAYLOAD,2024-07-06 07:12:27,14.98330545,0.0002981,69.9995,146.0683,269.9419,90.1399,-1.3822e-05,-2.58e-06,0.0,0 STARLINK-5277,1 55269U 23010A   24188.30031331 -.00000258  00000-0 -13822-4 0  9997,2 55269  69.9995 146.0683 0002981 269.9419  90.1399 14.98330545 81488,6950.191,96.107,574.128,569.984,0.0
55269.0,STARLINK-5277,PAYLOAD,2024-07-06 21:37:39,14.98331375,0.0002904,69.9998,144.5533,270.5735,89.5091,1.0727e-05,3.5e-07,0.0,0 STARLINK-5277,1 55269U 23010A   24188.90115192  .00000035  00000-0  10727-4 0  9993,2 55269  69.9998 144.5533 0002904 270.5735  89.5091 14.98331375 80989,6950.189,96.107,574.072,570.035,0.0
55269.0,STARLINK-5277,PAYLOAD,2024-07-07 07:14:27,14.98334137,0.0002946,69.9998,143.5435,270.5045,89.5776,6.1187e-06,-2e-07,0.0,0 STARLINK-5277,1 55269U 23010A   24189.30170978 -.00000020  00000-0  61187-5 0  9993,2 55269  69.9998 143.5435 0002946 270.5045  89.5776 14.98334137 81631,6950.18,96.107,574.093,569.998,0.0
55269.0,STARLINK-5277,PAYLOAD,2024-07-08 00:51:56,14.98330576,0.0002994,69.9997,141.6922,270.2188,89.8628,8.3544e-05,9.04e-06,0.0,0 STARLINK-5277,1 55269U 23010A   24190.03606954  .00000904  00000-0  83544-4 0  9993,2 55269  69.9997 141.6922 0002994 270.2188  89.8628 14.98330576 81157,6950.191,96.107,574.137,569.975,0.0
55269.0,STARLINK-5277,PAYLOAD,2024-07-08 13:41:00,14.98331708,0.0002937,69.9999,140.3458,269.9011,90.1812,5.4134e-05,5.53e-06,0.0,0 STARLINK-5277,1 55269U 23010A   24190.57014847  .00000553  00000-0  54134-4 0  9999,2 55269  69.9999 140.3458 0002937 269.9011  90.1812 14.98331708 81828,6950.188,96.107,574.094,570.011,0.0
55269.0,STARLINK-5277,PAYLOAD,2024-07-08 21:41:41,14.98331243,0.0002782,70.0002,139.5046,266.0321,94.052,3.3134e-05,3.02e-06,0.0,0 STARLINK-5277,1 55269U 23010A   24190.90394910  .00000302  00000-0  33134-4 0  9997,2 55269  70.0002 139.5046 0002782 266.0321  94.0520 14.98331243 81877,6950.189,96.107,573.988,570.121,0.0
55269.0,STARLINK-5277,PAYLOAD,2024-07-09 04:06:13,14.983318,0.0002791,70.0002,138.8315,264.5375,95.5466,3.6241e-05,3.39e-06,0.0,0 STARLINK-5277,1 55269U 23010A   24191.17098817  .00000339  00000-0  36241-4 0  9996,2 55269  70.0002 138.8315 0002791 264.5375  95.5466 14.98331800 81324,6950.187,96.107,573.992,570.113,0.0
55269.0,STARLINK-5277,PAYLOAD,2024-07-09 13:43:01,14.98330101,0.0002765,70.0002,137.8216,265.321,94.7633,-1.5105e-05,-2.73e-06,0.0,0 STARLINK-5277,1 55269U 23010A   24191.57155010 -.00000273  00000-0 -15105-4 0  9994,2 55269  70.0002 137.8216 0002765 265.3210  94.7633 14.98330101 81972,6950.193,96.107,573.979,570.136,0.0
55269.0,STARLINK-5277,PAYLOAD,2024-07-09 21:43:42,14.98327154,0.0002727,70.0003,136.9801,264.7495,95.3353,-5.7127e-05,-7.74e-06,0.0,0 STARLINK-5277,1 55269U 23010A   24191.90535337 -.00000774  00000-0 -57127-4 0  9991,2 55269  70.0003 136.9801 0002727 264.7495  95.3353 14.98327154 82026,6950.202,96.107,573.962,570.171,0.0
55269.0,STARLINK-5277,PAYLOAD,2024-07-10 04:08:14,14.98327447,0.0002772,70.0002,136.3069,266.6406,93.4435,-5.335e-05,-7.29e-06,0.0,0 STARLINK-5277,1 55269U 23010A   24192.17239357 -.00000729  00000-0 -53350-4 0  9998,2 55269  70.0002 136.3069 0002772 266.6406  93.4435 14.98327447 81471,6950.201,96.107,573.992,570.139,0.0
55269.0,STARLINK-5277,PAYLOAD,2024-07-10 13:45:02,14.98330558,0.0002992,69.9997,135.2968,268.0027,92.0789,-4.3595e-05,-6.13e-06,0.0,0 STARLINK-5277,1 55269U 23010A   24192.57295100 -.00000613  00000-0 -43595-4 0  9992,2 55269  69.9997 135.2968 0002992 268.0027  92.0789 14.98330558 82123,6950.191,96.107,574.136,569.977,0.0
55269.0,STARLINK-5277,PAYLOAD,2024-07-10 21:45:43,14.98320681,0.000301,69.9996,134.455,269.191,90.8904,0.00016924,1.926e-05,0.0,0 STARLINK-5277,1 55269U 23010A   24192.90675217  .00001926  00000-0  16924-3 0  9991,2 55269  69.9996 134.4550 0003010 269.1910  90.8904 14.98320681 82171,6950.222,96.108,574.179,569.995,0.0
55269.0,STARLINK-5277,PAYLOAD,2024-07-11 04:10:15,14.98332164,0.0002991,69.9996,133.7819,269.9805,90.1011,9.1238e-05,9.96e-06,0.0,0 STARLINK-5277,1 55269U 23010A   24193.17378670  .00000996  00000-0  91238-4 0  9992,2 55269  69.9996 133.7819 0002991 269.9805  90.1011 14.98332164 81629,6950.186,96.107,574.13,569.972,0.0
55269.0,STARLINK-5277,PAYLOAD,2024-07-11 05:46:23,14.98335593,0.000298,69.9996,133.6135,270.3321,89.7496,5.7296e-05,5.91e-06,0.0,0 STARLINK-5277,1 55269U 23010A   24193.24054525  .00000591  00000-0  57296-4 0  9997,2 55269  69.9996 133.6135 0002980 270.3321  89.7496 14.98335593 82223,6950.176,96.107,574.112,569.969,0.0
55269.0,STARLINK-5277,PAYLOAD,2024-07-12 04:12:16,14.9833129,0.0002987,69.9997,131.257,270.699,89.3827,8.1995e-05,8.86e-06,0.0,0 STARLINK-5277,1 55269U 23010A   24194.17518715  .00000886  00000-0  81995-4 0  9996,2 55269  69.9997 131.2570 0002987 270.6990  89.3827 14.98331290 81776,6950.189,96.107,574.13,569.978,0.0
55269.0,STARLINK-5277,PAYLOAD,2024-07-12 05:48:24,14.98332999,0.000298,69.9998,131.0887,270.6656,89.4161,9.9334e-05,1.093e-05,0.0,0 STARLINK-5277,1 55269U 23010A   24194.24194558  .00001093  00000-0  99334-4 0  9996,2 55269  69.9998 131.0887 0002980 270.6656  89.4161 14.98332999 82374,6950.184,96.107,574.12,569.977,0.0
55269.0,STARLINK-5277,PAYLOAD,2024-07-12 21:49:44,14.98332065,0.0002838,70.0002,129.4049,271.0953,88.9881,1.1149e-05,4e-07,0.0,0 STARLINK-5277,1 55269U 23010A   24194.90954822  .00000040  00000-0  11149-4 0  9996,2 55269  70.0002 129.4049 0002838 271.0953  88.9881 14.98332065 82479,6950.187,96.107,574.024,570.079,0.0
55269.0,STARLINK-5277,PAYLOAD,2024-07-13 04:14:16,14.98334795,0.0002793,70.0004,128.7325,269.1119,90.9721,2.6377e-05,2.22e-06,0.0,0 STARLINK-5277,1 55269U 23010A   24195.17658556  .00000222  00000-0  26377-4 0  9992,2 55269  70.0004 128.7325 0002793 269.1119  90.9721 14.98334795 81929,6950.178,96.107,573.984,570.102,0.0
55269.0,STARLINK-5277,PAYLOAD,2024-07-13 12:14:57,14.98331034,0.0002752,70.0006,127.8906,269.6472,90.4372,-1.5373e-05,-2.76e-06,0.0,0 STARLINK-5277,1 55269U 23010A   24195.51038837 -.00000276  00000-0 -15373-4 0  9999,2 55269  70.0006 127.8906 0002752 269.6472  90.4372 14.98331034 82569,6950.19,96.107,573.967,570.142,0.0
55269.0,STARLINK-5277,PAYLOAD,2024-07-13 21:51:45,14.98331038,0.0002776,70.0006,126.8807,269.6314,90.4527,-1.3215e-05,-2.51e-06,0.0,0 STARLINK-5277,1 55269U 23010A   24195.91094820 -.00000251  00000-0 -13215-4 0  9993,2 55269  70.0006 126.8807 0002776 269.6314  90.4527 14.98331038 82622,6950.19,96.107,573.984,570.125,0.0
55269.0,STARLINK-5277,PAYLOAD,2024-07-14 04:16:17,14.98333594,0.0002735,70.0006,126.2077,269.0001,91.0845,2.0843e-05,1.56e-06,0.0,0 STARLINK-5277,1 55269U 23010A   24196.17798532  .00000156  00000-0  20843-4 0  9990,2 55269  70.0006 126.2077 0002735 269.0001  91.0845 14.98333594 82075,6950.182,96.107,573.948,570.146,0.0
55269.0,STARLINK-5277,PAYLOAD,2024-07-14 12:16:58,14.98329855,0.0002707,70.0007,125.3662,269.3163,90.7686,-1.0659e-05,-2.2e-06,0.0,0 STARLINK-5277,1 55269U 23010A   24196.51178805 -.00000220  00000-0 -10659-4 0  9991,2 55269  70.0007 125.3662 0002707 269.3163  90.7686 14.98329855 82712,6950.193,96.107,573.94,570.177,0.0
55269.0,STARLINK-5277,PAYLOAD,2024-07-14 21:53:46,14.98331689,0.0002764,70.0005,124.3563,267.0233,93.061,5.6192e-06,-2.6e-07,0.0,0 STARLINK-5277,1 55269U 23010A   24196.91234596 -.00000026  00000-0  56192-5 0  9991,2 55269  70.0005 124.3563 0002764 267.0233  93.0610 14.98331689 82772,6950.188,96.107,573.974,570.132,0.0
55269.0,STARLINK-5277,PAYLOAD,2024-07-15 04:18:18,14.9833471,0.0002749,70.0006,123.6831,267.2532,92.8312,4.0122e-05,3.86e-06,0.0,0 STARLINK-5277,1 55269U 23010A   24197.17938283  .00000386  00000-0  40122-4 0  9997,2 55269  70.0006 123.6831 0002749 267.2532  92.8312 14.98334710 82224,6950.178,96.107,573.954,570.133,0.0
55269.0,STARLINK-5277,PAYLOAD,2024-07-15 20:19:39,14.9832878,0.0002751,70.0006,121.9999,267.1069,92.9776,1.4572e-05,8.1e-07,0.0,0 STARLINK-5277,1 55269U 23010A   24197.84698633  .00000081  00000-0  14572-4 0  9995,2 55269  70.0006 121.9999 0002751 267.1069  92.9776 14.98328780 82323,6950.197,96.107,573.974,570.15,0.0
55269.0,STARLINK-5277,PAYLOAD,2024-07-15 21:55:47,14.98326484,0.0002886,70.0006,121.8315,267.5639,92.519,3.7789e-05,3.58e-06,0.0,0 STARLINK-5277,1 55269U 23010A   24197.91374688  .00000358  00000-0  37789-4 0  9996,2 55269  70.0006 121.8315 0002886 267.5639  92.5190 14.98326484 82921,6950.204,96.107,574.075,570.063,0.0
55269.0,STARLINK-5277,PAYLOAD,2024-07-16 04:20:19,14.9832858,0.0002898,70.0006,121.1583,267.7847,92.298,4.1945e-05,4.08e-06,0.0,0 STARLINK-5277,1 55269U 23010A   24198.18078559  .00000408  00000-0  41945-4 0  9999,2 55269  70.0006 121.1583 0002898 267.7847  92.2980 14.98328580 82964,6950.197,96.107,574.076,570.048,0.0
55269.0,STARLINK-5277,PAYLOAD,2024-07-16 20:21:40,14.98329696,0.0002962,70.0005,119.4742,267.1501,92.9319,8.6473e-05,9.39e-06,0.0,0 STARLINK-5277,1 55269U 23010A   24198.84838261  .00000939  00000-0  86473-4 0  9990,2 55269  70.0005 119.4742 0002962 267.1501  92.9319 14.98329696 82471,6950.194,96.107,574.117,570.0,0.0
